[{"OBJECT_NAME":"RS-44 & BREEZE-KM R\/B","OBJECT_ID":"2019-096E","EPOCH":"2026-03-09T22:49:16.851072","MEAN_MOTION":12.79747411,"ECCENTRICITY":0.0217918,"INCLINATION":82.5202,"RA_OF_ASC_NODE":45.6405,"ARG_OF_PERICENTER":16.7093,"MEAN_ANOMALY":344.1042,"EPHEMERIS_TYPE":0,"CLASSIFICATION_TYPE":"U","NORAD_CAT_ID":44909,"ELEMENT_SET_NO":999,"REV_AT_EPOCH":28965,"BSTAR":3.908443e-5,"MEAN_MOTION_DOT":2.1e-7,"MEAN_MOTION_DDOT":0},{"OBJECT_NAME":"BREEZE-M DEB [TANK]","OBJECT_ID":"2008-003C","EPOCH":"2026-03-08T06:22:04.702944","MEAN_MOTION":2.30096757,"ECCENTRICITY":0.6988324,"INCLINATION":45.1126,"RA_OF_ASC_NODE":157.7661,"ARG_OF_PERICENTER":35.3378,"MEAN_ANOMALY":355.2597,"EPHEMERIS_TYPE":0,"CLASSIFICATION_TYPE":"U","NORAD_CAT_ID":32480,"ELEMENT_SET_NO":999,"REV_AT_EPOCH":15209,"BSTAR":0.0018366807,"MEAN_MOTION_DOT":-8.8e-7,"MEAN_MOTION_DDOT":0}]
